MEAN_MOTION;ECCENTRICITY;INCLINATION;RA_OF_ASC_NODE;ARG_OF_PERICENTER;MEAN_ANOMALY;BSTAR;MEAN_MOTION_DOT;MEAN_MOTION_DDOT;TYPE
12.61889158;7.67E-5;51.9914;172.4701;63.4119;95.9293;-2.3616E-5;-1.08E-6;0;Globalstar
12.61889081;7.6E-5;51.9914;169.5844;63.6741;85.9071;-6.2793E-5;-1.15E-6;0;Globalstar
12.61889087;7.6E-5;51.9914;166.4413;63.6217;100.779;-4.7942E-5;-1.12E-6;0;Globalstar
12.61889139;7.55E-5;51.9914;164.3305;63.8097;13.3154;-7.3634E-6;-1.05E-6;0;Globalstar
12.61889133;7.57E-5;51.9914;163.5586;63.7823;86.2622;-8.4955E-6;-1.05E-6;0;Globalstar
12.6188917;7.55E-5;51.9913;160.6719;63.8481;77.9907;1.0336E-5;-1.02E-6;0;Globalstar
12.61889168;7.55E-5;51.9913;160.415;63.7532;101.8333;9.5204E-6;-1.02E-6;0;Globalstar
12.61889137;7.6E-5;51.9912;157.273;64.6896;113.9256;-8.5715E-6;-1.05E-6;0;Globalstar
12.6188909;7.54E-5;51.9912;154.6462;65.5755;76.6539;-2.7881E-5;-1.09E-6;0;Globalstar
12.61889194;7.66E-5;51.9907;151.7766;64.6379;44.045;0.00015661;-7.6E-7;0;Globalstar
12.61889263;7.6E-5;51.9907;148.8887;64.4357;37.7048;0.00017676;-7.2E-7;0;Globalstar
12.61889262;7.66E-5;51.9907;145.7513;64.6063;43.7004;0.00013179;-8.0E-7;0;Globalstar
12.6188925;7.66E-5;51.9906;142.5947;64.5636;78.6205;6.0219E-5;-9.3E-7;0;Globalstar
12.61889237;7.67E-5;51.9906;142.3405;64.4471;98.4807;4.8435E-5;-9.5E-7;0;Globalstar
12.61889278;7.56E-5;51.9905;139.7043;65.7669;74.5237;2.7202E-5;-9.9E-7;0;Globalstar
12.61889316;7.56E-5;51.9904;136.8383;65.5508;35.5507;1.0875E-5;-1.02E-6;0;Globalstar
12.61889326;7.58E-5;51.9903;134.7099;65.1412;334.9256;2.8538E-6;-1.03E-6;0;Globalstar
12.61889355;7.67E-5;51.9903;133.6803;64.7053;73.1533;2.1089E-5;-1.0E-6;0;Globalstar
12.61889359;7.74E-5;51.9902;130.5428;65.0993;78.9998;1.2388E-5;-1.01E-6;0;Globalstar
12.61889428;7.8E-5;51.9901;127.6548;63.7053;73.7588;8.3108E-5;-8.9E-7;0;Globalstar
12.61889537;7.98E-5;51.9901;124.2622;63.9348;100.8653;0.00016194;-7.5E-7;0;Globalstar
12.61889579;7.96E-5;51.9902;121.6285;64.5425;73.6794;0.00018572;-7.1E-7;0;Globalstar
12.61889638;8.04E-5;51.9902;119.2611;65.0376;9.1673;0.00020566;-6.7E-7;0;Globalstar
12.61889657;8.1E-5;51.9901;118.2358;64.3478;101.1533;0.00022304;-6.4E-7;0;Globalstar
12.61889734;8.19E-5;51.9902;115.3507;65.0525;89.6974;0.00023144;-6.2E-7;0;Globalstar
12.61889782;8.36E-5;51.9901;112.4645;64.0379;81.5132;0.00020806;-6.7E-7;0;Globalstar
12.61889813;8.37E-5;51.9901;110.6104;64.4984;330.2158;0.00018121;-7.1E-7;0;Globalstar
12.61889877;8.45E-5;51.9902;109.318;64.6691;100.3148;0.00019294;-6.9E-7;0;Globalstar
12.61889917;8.67E-5;51.9902;106.4371;63.7676;84.1723;0.00015041;-7.7E-7;0;Globalstar
12.6188995;8.66E-5;51.9902;104.5818;64.49;334.3538;0.00012019;-8.2E-7;0;Globalstar
12.61889982;8.88E-5;51.9903;101.1826;64.3956;11.4326;6.8375E-5;-9.1E-7;0;Globalstar
12.61889993;8.97E-5;51.9903;100.4114;64.2722;83.4335;7.649E-5;-9.0E-7;0;Globalstar
12.61890027;9.15E-5;51.9903;97.2702;64.7704;94.4034;6.076E-5;-9.3E-7;0;Globalstar
12.61889996;9.35E-5;51.9904;94.1307;65.3546;102.7967;3.0862E-5;-9.8E-7;0;Globalstar
12.61889985;9.61E-5;51.9906;89.6465;66.2469;319.2316;3.1931E-5;-9.8E-7;0;Globalstar
12.61889986;9.8E-5;51.9907;88.1043;66.2708;102.6676;4.4741E-5;-9.6E-7;0;Globalstar
12.61890003;9.88E-5;51.9908;85.9946;67.0695;12.6807;5.1412E-5;-9.4E-7;0;Globalstar
12.61889997;0.0001005;51.991;83.6077;67.5291;337.2642;5.668E-5;-9.4E-7;0;Globalstar
12.61890028;0.0001015;51.9913;80.4627;68.9115;353.2477;5.6733E-5;-9.4E-7;0;Globalstar
12.61890069;0.000102;51.9915;77.7986;70.0926;11.5557;6.8356E-5;-9.1E-7;0;Globalstar
12.61890076;0.0001022;51.9915;77.5448;70.2248;30.466;6.4597E-5;-9.2E-7;0;Globalstar
12.61890087;0.000104;51.9918;74.4556;71.1566;323.635;2.9117E-5;-9.8E-7;0;Globalstar
12.61890154;0.0001062;51.992;71.3169;72.1215;330.9449;2.7436E-5;-9.9E-7;0;Globalstar
12.61890197;0.0001074;51.9922;69.3857;72.3504;335.3175;3.2287E-5;-9.8E-7;0;Globalstar
12.61890229;0.000109;51.9923;66.2499;73.6041;337.9642;2.4087E-5;-9.9E-7;0;Globalstar
12.61890267;0.00011;51.9924;64.5258;74.4729;32.2494;4.7845E-5;-9.5E-7;0;Globalstar
12.61890247;0.0001108;51.9926;62.4031;75.5103;321.7806;1.4081E-5;-1.01E-6;0;Globalstar
12.61890253;0.0001133;51.9928;59.2657;76.8897;326.549;1.9529E-5;-1.0E-6;0;Globalstar
12.6189026;0.0001145;51.9928;58.2299;77.1841;73.3826;3.9809E-5;-9.7E-7;0;Globalstar
12.61890262;0.0001154;51.993;56.3609;78.1156;344.2286;3.495E-5;-9.7E-7;0;Globalstar
12.61890277;0.0001159;51.9931;55.0896;78.5383;82.6435;5.7555E-5;-9.3E-7;0;Globalstar
12.61890288;0.0001165;51.9932;53.1951;79.443;31.4975;5.4793E-5;-9.4E-7;0;Globalstar
12.61890305;0.0001171;51.9933;52.2043;79.7324;71.3175;7.8201E-5;-9.0E-7;0;Globalstar
12.61890363;0.0001187;51.9935;49.3179;80.9829;61.4617;0.00010951;-8.4E-7;0;Globalstar
12.6189042;0.0001213;51.9937;44.5708;82.9089;310.5727;0.00010791;-8.4E-7;0;Globalstar
12.61890446;0.0001222;51.9938;43.0383;83.4781;79.2008;0.00010791;-8.4E-7;0;Globalstar
12.61890465;0.0001232;51.9939;40.9145;84.508;10.7081;8.8426E-5;-8.8E-7;0;Globalstar
12.61890412;0.0001242;51.994;38.0276;85.5632;2.022;1.6591E-5;-1.01E-6;0;Globalstar
12.6189036;0.0001265;51.994;35.1191;86.8046;25.4336;-2.857E-5;-1.09E-6;0;Globalstar
12.61890353;0.0001266;51.994;34.9009;86.9318;351.2562;-3.2657E-5;-1.09E-6;0;Globalstar
12.61890396;0.0001281;51.9941;31.7669;88.1275;351.5336;-5.6378E-6;-1.05E-6;0;Globalstar
12.61890435;0.0001292;51.9941;28.8756;89.8802;348.6358;2.9324E-5;-9.8E-7;0;Globalstar
12.61890423;0.0001297;51.9941;28.1016;90.2532;64.4133;3.2429E-5;-9.8E-7;0;Globalstar
12.61890428;0.000131;51.9941;25.7407;91.4155;349.7181;3.4445E-5;-9.8E-7;0;Globalstar
12.61890458;0.0001317;51.9941;23.8212;92.1059;336.3816;7.5231E-5;-9.0E-7;0;Globalstar
12.61890456;0.0001325;51.9941;22.8501;92.6813;346.2636;6.8359E-5;-9.1E-7;0;Globalstar
12.61890462;0.0001331;51.994;22.077;92.9872;60.8381;8.0239E-5;-8.9E-7;0;Globalstar
12.61890449;0.0001339;51.994;19.9443;94.1663;5.2121;5.5097E-5;-9.4E-7;0;Globalstar
12.61890446;0.0001339;51.9941;19.7158;94.284;346.5246;5.8743E-5;-9.3E-7;0;Globalstar
12.61890452;0.0001345;51.9941;16.8245;95.704;343.813;5.2472E-5;-9.4E-7;0;Globalstar
12.6189048;0.0001354;51.994;13.6896;97.3461;344.9108;6.875E-5;-9.1E-7;0;Globalstar
12.61890516;0.0001362;51.9939;10.7989;98.6193;341.5012;7.9423E-5;-9.0E-7;0;Globalstar
12.61890655;0.0001376;51.9939;7.1359;100.7542;50.8676;0.00014864;-7.7E-7;0;Globalstar
12.61890728;0.0001387;51.9937;1.3841;103.2144;359.9582;0.00013162;-8.0E-7;0;Globalstar
12.61890773;0.0001388;51.9936;0.8594;103.3694;63.6499;0.00015777;-7.6E-7;0;Globalstar
12.61890753;0.0001391;51.9936;359.4723;104.2726;334.5184;0.00013111;-8.0E-7;0;Globalstar
12.61890761;0.0001395;51.9935;358.7488;104.8059;334.7184;0.00011579;-8.3E-7;0;Globalstar
12.61890796;0.0001401;51.9934;356.5793;106.0074;334.0104;0.0001386;-7.9E-7;0;Globalstar
12.61890813;0.0001407;51.9934;355.3398;106.8283;24.5266;0.00014296;-7.8E-7;0;Globalstar
12.61890853;0.000141;51.9933;353.6933;107.7968;322.8722;0.00016153;-7.5E-7;0;Globalstar
12.61890842;0.0001415;51.9932;352.7235;108.5883;330.4701;0.00013717;-7.9E-7;0;Globalstar
12.61890862;0.0001412;51.9932;351.9482;108.834;48.2481;0.0001571;-7.6E-7;0;Globalstar
12.61890865;0.0001408;51.9931;346.6642;111.6335;17.7027;0.00012221;-8.2E-7;0;Globalstar
12.61890921;0.0001405;51.993;343.3066;113.2353;351.18;0.00014159;-7.8E-7;0;Globalstar
12.61890971;0.0001415;51.9929;340.1496;114.29;25.9425;0.00013307;-8.0E-7;0;Globalstar
12.61890988;0.0001413;51.9929;339.8966;114.2612;43.8414;0.00014292;-7.8E-7;0;Globalstar
12.6189105;0.0001413;51.9928;337.2816;115.9869;348.0654;0.00014324;-7.8E-7;0;Globalstar
12.61891178;0.0001414;51.9928;334.6469;118.0442;321.1833;0.00017297;-7.3E-7;0;Globalstar
12.61891181;0.000141;51.9928;333.8707;118.0904;40.6709;0.00016781;-7.4E-7;0;Globalstar
12.61891279;0.0001415;51.9927;331.2555;120.1582;344.639;0.00018658;-7.0E-7;0;Globalstar
12.6189129;0.0001413;51.9927;330.986;120.1088;27.2401;0.00018997;-7.0E-7;0;Globalstar
12.61891396;0.0001411;51.9927;328.3629;122.2562;342.9675;0.00020566;-6.7E-7;0;Globalstar
12.6189146;0.0001411;51.9926;326.2458;123.844;263.6707;0.00021404;-6.6E-7;0;Globalstar
12.61891471;0.0001407;51.9926;324.9591;124.2888;25.1393;0.00021065;-6.6E-7;0;Globalstar
12.61891494;0.0001404;51.9925;324.7072;124.2784;41.2858;0.00022127;-6.4E-7;0;Globalstar
12.6189142;0.0001399;51.9925;322.3367;125.9822;340.085;0.00016402;-7.4E-7;0;Globalstar
12.61891364;0.0001383;51.9925;319.2035;127.5099;338.3059;0.00012197;-8.2E-7;0;Globalstar
12.61891333;0.0001395;51.9924;317.0799;130.1763;267.3295;8.2065E-5;-8.9E-7;0;Globalstar
12.61891365;0.000139;51.9924;315.7922;131.2503;29.555;0.00011588;-8.3E-7;0;Globalstar
12.61891301;0.0001375;51.9924;312.9067;132.7229;17.8606;7.3008E-5;-9.1E-7;0;Globalstar
12.61891334;0.0001372;51.9924;310.0162;135.5394;12.5372;6.8627E-5;-9.1E-7;0;Globalstar
12.61891363;0.0001372;51.9924;309.7631;135.7339;30.3348;8.6842E-5;-8.8E-7;0;Globalstar
12.61891333;0.0001364;51.9923;306.9237;137.9911;309.1606;3.8732E-5;-9.7E-7;0;Globalstar
12.61891334;0.000135;51.9923;304.2615;140.2494;323.3112;2.8288E-7;-1.04E-6;0;Globalstar
12.61891308;0.0001324;51.9926;302.4;142.1576;222.2828;4.5317E-6;-1.03E-6;0;Globalstar
12.61891304;0.0001321;51.9926;301.1249;142.9645;326.0047;1.471E-5;-1.01E-6;0;Globalstar
12.61891297;0.0001308;51.9926;299.0025;143.8893;255.1046;4.1477E-6;-1.03E-6;0;Globalstar
12.61891291;0.0001286;51.9926;295.0794;146.488;352.3679;-4.8148E-6;-1.05E-6;0;Globalstar
12.61891286;0.0001267;51.9926;292.2125;148.5711;312.4421;-6.4826E-6;-1.05E-6;0;Globalstar
12.61891264;0.0001247;51.9926;288.8036;151.0312;1.8391;-1.7594E-5;-1.07E-6;0;Globalstar
12.61891431;0.0001255;51.9922;286.1869;152.9866;308.2072;0.00012238;-8.2E-7;0;Globalstar
12.61891593;0.0001233;51.9921;282.7776;155.4066;358.1082;0.0002338;-6.2E-7;0;Globalstar
12.61891821;0.0001209;51.9922;279.6369;158.1963;6.5078;0.00034797;-4.2E-7;0;Globalstar
12.61891881;0.00012;51.9922;277.7682;159.5616;276.399;0.00033801;-4.3E-7;0;Globalstar
12.61891907;0.0001195;51.9922;277.0034;160.0854;338.1887;0.00036062;-3.9E-7;0;Globalstar
